[{"OBJECT_NAME":"UK-DMC 2","OBJECT_ID":"2009-041C","EPOCH":"2026-03-09T23:23:59.777088","MEAN_MOTION":14.75853536,"ECCENTRICITY":0.00010983,"INCLINATION":97.8657,"RA_OF_ASC_NODE":206.4708,"ARG_OF_PERICENTER":90.2478,"MEAN_ANOMALY":269.8858,"EPHEMERIS_TYPE":0,"CLASSIFICATION_TYPE":"U","NORAD_CAT_ID":35683,"ELEMENT_SET_NO":999,"REV_AT_EPOCH":89193,"BSTAR":0.00020221401,"MEAN_MOTION_DOT":1.338e-5,"MEAN_MOTION_DDOT":0},{"OBJECT_NAME":"COROT","OBJECT_ID":"2006-063A","EPOCH":"2026-03-09T22:30:11.406528","MEAN_MOTION":14.50154879,"ECCENTRICITY":0.01887104,"INCLINATION":90.0985,"RA_OF_ASC_NODE":35.9409,"ARG_OF_PERICENTER":102.6453,"MEAN_ANOMALY":259.5926,"EPHEMERIS_TYPE":0,"CLASSIFICATION_TYPE":"U","NORAD_CAT_ID":29678,"ELEMENT_SET_NO":999,"REV_AT_EPOCH":59,"BSTAR":0.00030077955,"MEAN_MOTION_DOT":1.487e-5,"MEAN_MOTION_DDOT":0}]
